ATLAS CENTAUR R/B       
1 06155U 72065B   26077.54466868  .00001202  00000+0  16697-3 0  9992
2 06155  35.0008 253.8590 0032872  84.3713 276.0735 14.77711852842574
SL-8 R/B                
1 08459U 75112B   26077.26753730  .00000234  00000+0  85471-4 0  9994
2 08459  74.0637   3.1340 0014438  92.7772 267.5035 14.38208852633102
SL-3 R/B                
1 10114U 77057B   26077.52372865  .00010701  00000+0  22308-3 0  9999
2 10114  97.5775 249.8360 0006212 247.1758 112.8834 15.45744167669693
SEASAT 1                
1 10967U 78064A   26077.41930874  .00000228  00000+0  10221-3 0  9996
2 10967 108.0091 143.8173 0002451 281.8972  78.1898 14.46167445507779
SL-14 R/B               
1 11267U 79011B   26077.43367722  .00000581  00000+0  54764-4 0  9994
2 11267  82.5203  88.2710 0016872  33.3013 326.9265 14.91919126530084
SL-8 R/B                
1 11574U 79089B   26077.41541437  .00000265  00000+0  88044-4 0  9992
2 11574  74.0670  74.8893 0017046 246.5879 113.3485 14.42356530437363
SL-14 R/B               
1 11672U 80005B   26077.11689079  .00000538  00000+0  51768-4 0  9999
2 11672  82.5129 299.2417 0016837 131.6415 228.6249 14.90939900477742
SL-8 R/B                
1 12139U 81003B   26077.54292723  .00018586  00000+0  47183-3 0  9997
2 12139  82.9364 281.8366 0261475 147.7821 213.9696 15.11346481316010
SL-3 R/B                
1 12465U 81046B   26077.54415322  .00008565  00000+0  19759-3 0  9992
2 12465  81.2280 279.1091 0018846 351.5135   8.5786 15.42212185439797
SL-3 R/B                
1 12904U 81103B   26077.51942273  .00004374  00000+0  19308-3 0  9995
2 12904  81.1601 203.0743 0012433 254.9850 105.0006 15.21482748974576
SL-3 R/B                
1 13068U 82013B   26077.45813614  .00003647  00000+0  15703-3 0  9994
2 13068  81.1756 150.4944 0023126 148.2957 211.9673 15.22100628405684
SL-3 R/B                
1 13154U 82039B   26077.53573576  .00002257  00000+0  13572-3 0  9995
2 13154  81.1579 205.7627 0029280 295.4539  64.3657 15.10131511382973
