CCSDS_OMM_VERS = 2.0
CREATION_DATE  = 
ORIGINATOR     = 

OBJECT_NAME    = ATLAS CENTAUR R/B
OBJECT_ID      = 1972-065B
CENTER_NAME    = EARTH
REF_FRAME      = TEME
TIME_SYSTEM    = UTC
MEAN_ELEMENT_THEORY = SGP/SGP4

EPOCH          = 2026-03-18T13:04:19.373952
MEAN_MOTION    = 14.77711852
ECCENTRICITY   = .0032872
INCLINATION    = 35.0008
RA_OF_ASC_NODE = 253.8590
ARG_OF_PERICENTER = 84.3713
MEAN_ANOMALY   = 276.0735

EPHEMERIS_TYPE = 0
CLASSIFICATION_TYPE = U
NORAD_CAT_ID   = 6155
ELEMENT_SET_NO = 999
REV_AT_EPOCH   = 84257
BSTAR          = .16697E-3
MEAN_MOTION_DOT = .1202E-4
MEAN_MOTION_DDOT = 0

CCSDS_OMM_VERS = 2.0
CREATION_DATE  = 
ORIGINATOR     = 

OBJECT_NAME    = SL-8 R/B
OBJECT_ID      = 1975-112B
CENTER_NAME    = EARTH
REF_FRAME      = TEME
TIME_SYSTEM    = UTC
MEAN_ELEMENT_THEORY = SGP/SGP4

EPOCH          = 2026-03-18T06:25:15.222720
MEAN_MOTION    = 14.38208852
ECCENTRICITY   = .0014438
INCLINATION    = 74.0637
RA_OF_ASC_NODE = 3.1340
ARG_OF_PERICENTER = 92.7772
MEAN_ANOMALY   = 267.5035

EPHEMERIS_TYPE = 0
CLASSIFICATION_TYPE = U
NORAD_CAT_ID   = 8459
ELEMENT_SET_NO = 999
REV_AT_EPOCH   = 63310
BSTAR          = .85471E-4
MEAN_MOTION_DOT = .234E-5
MEAN_MOTION_DDOT = 0

CCSDS_OMM_VERS = 2.0
CREATION_DATE  = 
ORIGINATOR     = 

OBJECT_NAME    = SL-3 R/B
OBJECT_ID      = 1977-057B
CENTER_NAME    = EARTH
REF_FRAME      = TEME
TIME_SYSTEM    = UTC
MEAN_ELEMENT_THEORY = SGP/SGP4

EPOCH          = 2026-03-18T12:34:10.155360
MEAN_MOTION    = 15.45744167
ECCENTRICITY   = .0006212
INCLINATION    = 97.5775
RA_OF_ASC_NODE = 249.8360
ARG_OF_PERICENTER = 247.1758
MEAN_ANOMALY   = 112.8834

EPHEMERIS_TYPE = 0
CLASSIFICATION_TYPE = U
NORAD_CAT_ID   = 10114
ELEMENT_SET_NO = 999
REV_AT_EPOCH   = 66969
BSTAR          = .22308E-3
MEAN_MOTION_DOT = .10701E-3
MEAN_MOTION_DDOT = 0

CCSDS_OMM_VERS = 2.0
CREATION_DATE  = 
ORIGINATOR     = 

OBJECT_NAME    = SEASAT 1
OBJECT_ID      = 1978-064A
CENTER_NAME    = EARTH
REF_FRAME      = TEME
TIME_SYSTEM    = UTC
MEAN_ELEMENT_THEORY = SGP/SGP4

EPOCH          = 2026-03-18T10:03:48.275136
MEAN_MOTION    = 14.46167445
ECCENTRICITY   = .0002451
INCLINATION    = 108.0091
RA_OF_ASC_NODE = 143.8173
ARG_OF_PERICENTER = 281.8972
MEAN_ANOMALY   = 78.1898

EPHEMERIS_TYPE = 0
CLASSIFICATION_TYPE = U
NORAD_CAT_ID   = 10967
ELEMENT_SET_NO = 999
REV_AT_EPOCH   = 50777
BSTAR          = .10221E-3
MEAN_MOTION_DOT = .228E-5
MEAN_MOTION_DDOT = 0

CCSDS_OMM_VERS = 2.0
CREATION_DATE  = 
ORIGINATOR     = 

OBJECT_NAME    = SL-14 R/B
OBJECT_ID      = 1979-011B
CENTER_NAME    = EARTH
REF_FRAME      = TEME
TIME_SYSTEM    = UTC
MEAN_ELEMENT_THEORY = SGP/SGP4

EPOCH          = 2026-03-18T10:24:29.711808
MEAN_MOTION    = 14.91919126
ECCENTRICITY   = .0016872
INCLINATION    = 82.5203
RA_OF_ASC_NODE = 88.2710
ARG_OF_PERICENTER = 33.3013
MEAN_ANOMALY   = 326.9265

EPHEMERIS_TYPE = 0
CLASSIFICATION_TYPE = U
NORAD_CAT_ID   = 11267
ELEMENT_SET_NO = 999
REV_AT_EPOCH   = 53008
BSTAR          = .54764E-4
MEAN_MOTION_DOT = .581E-5
MEAN_MOTION_DDOT = 0

CCSDS_OMM_VERS = 2.0
CREATION_DATE  = 
ORIGINATOR     = 

OBJECT_NAME    = SL-8 R/B
OBJECT_ID      = 1979-089B
CENTER_NAME    = EARTH
REF_FRAME      = TEME
TIME_SYSTEM    = UTC
MEAN_ELEMENT_THEORY = SGP/SGP4

EPOCH          = 2026-03-18T09:58:11.801568
MEAN_MOTION    = 14.42356530
ECCENTRICITY   = .0017046
INCLINATION    = 74.0670
RA_OF_ASC_NODE = 74.8893
ARG_OF_PERICENTER = 246.5879
MEAN_ANOMALY   = 113.3485

EPHEMERIS_TYPE = 0
CLASSIFICATION_TYPE = U
NORAD_CAT_ID   = 11574
ELEMENT_SET_NO = 999
REV_AT_EPOCH   = 43736
BSTAR          = .88044E-4
MEAN_MOTION_DOT = .265E-5
MEAN_MOTION_DDOT = 0

CCSDS_OMM_VERS = 2.0
CREATION_DATE  = 
ORIGINATOR     = 

OBJECT_NAME    = SL-14 R/B
OBJECT_ID      = 1980-005B
CENTER_NAME    = EARTH
REF_FRAME      = TEME
TIME_SYSTEM    = UTC
MEAN_ELEMENT_THEORY = SGP/SGP4

EPOCH          = 2026-03-18T02:48:19.364256
MEAN_MOTION    = 14.90939900
ECCENTRICITY   = .00168373
INCLINATION    = 82.5129
RA_OF_ASC_NODE = 299.2417
ARG_OF_PERICENTER = 131.6415
MEAN_ANOMALY   = 228.6249

EPHEMERIS_TYPE = 0
CLASSIFICATION_TYPE = U
NORAD_CAT_ID   = 11672
ELEMENT_SET_NO = 999
REV_AT_EPOCH   = 47774
BSTAR          = .51768064E-4
MEAN_MOTION_DOT = .538E-5
MEAN_MOTION_DDOT = 0

CCSDS_OMM_VERS = 2.0
CREATION_DATE  = 
ORIGINATOR     = 

OBJECT_NAME    = SL-8 R/B
OBJECT_ID      = 1981-003B
CENTER_NAME    = EARTH
REF_FRAME      = TEME
TIME_SYSTEM    = UTC
MEAN_ELEMENT_THEORY = SGP/SGP4

EPOCH          = 2026-03-18T13:01:48.912672
MEAN_MOTION    = 15.11346481
ECCENTRICITY   = .0261475
INCLINATION    = 82.9364
RA_OF_ASC_NODE = 281.8366
ARG_OF_PERICENTER = 147.7821
MEAN_ANOMALY   = 213.9696

EPHEMERIS_TYPE = 0
CLASSIFICATION_TYPE = U
NORAD_CAT_ID   = 12139
ELEMENT_SET_NO = 999
REV_AT_EPOCH   = 31601
BSTAR          = .47183E-3
MEAN_MOTION_DOT = .18586E-3
MEAN_MOTION_DDOT = 0

CCSDS_OMM_VERS = 2.0
CREATION_DATE  = 
ORIGINATOR     = 

OBJECT_NAME    = SL-3 R/B
OBJECT_ID      = 1981-046B
CENTER_NAME    = EARTH
REF_FRAME      = TEME
TIME_SYSTEM    = UTC
MEAN_ELEMENT_THEORY = SGP/SGP4

EPOCH          = 2026-03-18T13:03:34.838208
MEAN_MOTION    = 15.42212185
ECCENTRICITY   = .0018846
INCLINATION    = 81.2280
RA_OF_ASC_NODE = 279.1091
ARG_OF_PERICENTER = 351.5135
MEAN_ANOMALY   = 8.5786

EPHEMERIS_TYPE = 0
CLASSIFICATION_TYPE = U
NORAD_CAT_ID   = 12465
ELEMENT_SET_NO = 999
REV_AT_EPOCH   = 43979
BSTAR          = .19759E-3
MEAN_MOTION_DOT = .8565E-4
MEAN_MOTION_DDOT = 0

CCSDS_OMM_VERS = 2.0
CREATION_DATE  = 
ORIGINATOR     = 

OBJECT_NAME    = SL-3 R/B
OBJECT_ID      = 1981-103B
CENTER_NAME    = EARTH
REF_FRAME      = TEME
TIME_SYSTEM    = UTC
MEAN_ELEMENT_THEORY = SGP/SGP4

EPOCH          = 2026-03-18T12:27:58.123872
MEAN_MOTION    = 15.21482748
ECCENTRICITY   = .0012433
INCLINATION    = 81.1601
RA_OF_ASC_NODE = 203.0743
ARG_OF_PERICENTER = 254.9850
MEAN_ANOMALY   = 105.0006

EPHEMERIS_TYPE = 0
CLASSIFICATION_TYPE = U
NORAD_CAT_ID   = 12904
ELEMENT_SET_NO = 999
REV_AT_EPOCH   = 97457
BSTAR          = .19308E-3
MEAN_MOTION_DOT = .4374E-4
MEAN_MOTION_DDOT = 0

CCSDS_OMM_VERS = 2.0
CREATION_DATE  = 
ORIGINATOR     = 

OBJECT_NAME    = SL-3 R/B
OBJECT_ID      = 1982-013B
CENTER_NAME    = EARTH
REF_FRAME      = TEME
TIME_SYSTEM    = UTC
MEAN_ELEMENT_THEORY = SGP/SGP4

EPOCH          = 2026-03-18T10:59:42.962496
MEAN_MOTION    = 15.22100628
ECCENTRICITY   = .0023126
INCLINATION    = 81.1756
RA_OF_ASC_NODE = 150.4944
ARG_OF_PERICENTER = 148.2957
MEAN_ANOMALY   = 211.9673

EPHEMERIS_TYPE = 0
CLASSIFICATION_TYPE = U
NORAD_CAT_ID   = 13068
ELEMENT_SET_NO = 999
REV_AT_EPOCH   = 40568
BSTAR          = .15703E-3
MEAN_MOTION_DOT = .3647E-4
MEAN_MOTION_DDOT = 0

CCSDS_OMM_VERS = 2.0
CREATION_DATE  = 
ORIGINATOR     = 

OBJECT_NAME    = SL-3 R/B
OBJECT_ID      = 1982-039B
CENTER_NAME    = EARTH
REF_FRAME      = TEME
TIME_SYSTEM    = UTC
MEAN_ELEMENT_THEORY = SGP/SGP4

EPOCH          = 2026-03-18T12:51:27.569664
MEAN_MOTION    = 15.10131511
ECCENTRICITY   = .002928
INCLINATION    = 81.1579
RA_OF_ASC_NODE = 205.7627
ARG_OF_PERICENTER = 295.4539
MEAN_ANOMALY   = 64.3657

EPHEMERIS_TYPE = 0
CLASSIFICATION_TYPE = U
NORAD_CAT_ID   = 13154
ELEMENT_SET_NO = 999
REV_AT_EPOCH   = 38297
BSTAR          = .13572E-3
MEAN_MOTION_DOT = .2257E-4
MEAN_MOTION_DDOT = 0

